STARLINK-1316           
1 45415U 20019BH  26068.54392573 -.00000298  00000+0  20517-5 0  9990
2 45415  53.1611 129.9786 0001315  83.5347 276.5804 15.30197836329975
NUSAT-50 (NANCY ROMAN)  
1 60493U 24149AB  26068.80227738  .00012094  00000+0  42252-3 0  9994
2 60493  97.3817 150.7693 0002523 238.0469 122.0527 15.29713355 86930
